CZ-4B R/B               
1 28415U 04035C   25249.07150631  .00007538  00000+0  29767-3 0  9993
2 28415  97.3748 280.7857 0033144 261.2152  98.5332 15.25293100151736
CZ-2C R/B               
1 28480U 04046B   25249.27868870  .00000392  00000+0  16138-3 0  9999
2 28480  98.1907 170.7592 0139339 340.7523  18.8425 14.26872459 82209
ARIANE 5 R/B            
1 28499U 04049H   25249.00782959  .00001681  00000+0  19377-3 0  9996
2 28499  98.2443  45.8563 0084162 228.9954 130.3961 14.84668903118388
CZ-2D R/B               
1 28738U 05024B   25249.29786101  .00030926  00000+0  61602-3 0  9992
2 28738  97.3693 254.6098 0004988   9.0215 351.1123 15.46837307111167
ALOS (DAICHI)           
1 28931U 06002A   25248.96703098  .00002584  00000+0  44920-3 0  9994
2 28931  98.0908 201.2741 0001977 108.4688 251.6732 14.68985753 46355
H-2A R/B                
1 28932U 06002B   25249.25543210  .00013754  00000+0  76993-3 0  9992
2 28932  98.2208  16.3137 0057743 146.9365 213.5495 15.12130031 66521
RESURS-DK 1             
1 29228U 06021A   25249.30000906  .00004095  00000+0  24826-3 0  9994
2 29228  69.9366 353.4939 0003533 354.0983   6.0140 15.11379590 59653
CZ-4B R/B               
1 29507U 06046C   25249.09379400  .00005762  00000+0  31200-3 0  9991
2 29507  97.5894 289.5011 0035122 183.5174 176.5816 15.14491091 32087
CZ-2C R/B               
1 31114U 07010B   25249.28152238  .00000238  00000+0  12797-3 0  9992
2 31114  98.3880   6.8914 0060162 110.1403 250.6261 14.20156737953545
COSMO-SKYMED 1          
1 31598U 07023A   25249.28665325  .00003525  00000+0  32934-3 0  9995
2 31598  97.8894  74.0977 0001364  82.7982 277.3393 14.94812044987338
COSMOS 2428             
1 31792U 07029A   25249.25007692 -.00000023  00000+0  13138-4 0  9998
2 31792  70.9418 230.5236 0004155 214.2510 145.8344 14.12904508938041
SL-16 R/B               
1 31793U 07029B   25249.25240817 -.00000108  00000+0 -31226-4 0  9990
2 31793  70.9758 200.0710 0002968 273.2198 188.4544 14.14794584939280
KORONAS-FOTON           
1 33504U 09003A   25249.06669945  .00011252  00000+0  29836-3 0  9995
2 33504  82.4302 107.0534 0013312  97.8523 262.4233 15.38086511917311
CZ-2C R/B               
1 37731U 11030B   25249.13490709  .00001764  00000+0  23248-3 0  9990
2 37731  97.8222 205.5367 0052055 229.8270 140.0430 14.80436239762780
H-2A R/B                
1 38341U 12025E   25248.91837894  .00003626  00000+0  34417-3 0  9997
2 38341  98.4411 196.7876 0045671 195.0132 164.9733 14.93466701720627
SHIJIAN-16 (SJ-16)      
1 39358U 13057A   25249.22265879  .00002728  00000+0  27435-3 0  9999
2 39358  74.9737 174.0931 0017497 203.9673 156.0703 14.91527585643990
SL-4 R/B                
1 39679U 14021B   25249.14242958  .00014932  00000+0  38914-3 0  9995
2 39679  51.6087 153.5638 0110148 152.7249 207.9575 15.33078606627907
ALOS-2                  
1 39766U 14029A   25249.28408833  .00002818  00000+0  38409-3 0  9990
2 39766  97.9228 345.5237 0001378  92.5474 267.5895 14.79465981609606
YAOGAN-29               
1 41038U 15069A   25249.30960230  .00000779  00000+0  10326-3 0  9999
2 41038  98.0324 272.1061 0001111 161.9432 198.1821 14.82724532528556
ASTRO-H (HITOMI)        
1 41337U 16012A   25248.98490451  .00003948  00000+0  24116-3 0  9999
2 41337  30.9994 107.1293 0010196 278.2345  81.7136 15.08474871524300
HXMT (HUIYAN)           
1 42758U 17034A   25249.30922179  .00007830  00000+0  42224-3 0  9990
2 42758  43.0154 319.6306 0033084 153.0306 207.2269 15.14670412454551
CZ-2C R/B               
1 43521U 18054D   25249.05319228  .00048702  00000+0  61736-3 0  9991
2 43521  35.1371 114.1515 0032475 296.2050  63.5340 15.57700026399746
SAOCOM 1A               
1 43641U 18076A   25249.25414639  .00000782  00000+0  10482-3 0  9990
2 43641  97.8901  75.0707 0001342  89.7884 270.3483 14.82143437374046
H-2A R/B                
1 43682U 18084L   25249.23658480  .00020882  00000+0  65260-3 0  9993
2 43682  98.8825  63.4889 0030267 300.0374  59.7862 15.32765038377440
SAOCOM 1B               
1 46265U 20059A   25249.28541197  .00000837  00000+0  11166-3 0  9993
2 46265  97.8909  74.2084 0001503  90.7664 269.3721 14.82147188271434
CSS (TIANHE)            
1 48274U 21035A   25249.27781637  .00027778  00000+0  34817-3 0  9995
2 48274  41.4637 249.1516 0005911 297.4252  62.5984 15.59112519248802
COSMOS 2550             
1 48865U 21056A   25247.48013034  .00007622  00000+0  23722-3 0  9993
2 48865  67.1410 244.2399 0008322 270.2865  89.7336 15.33836876234904
CZ-2C R/B               
1 52794U 22058K   25248.77243772  .00022264  00000+0  48694-3 0  9993
2 52794  50.1916 180.7100 0054382 148.8004 211.6209 15.42457771181481
GSLV R/B                
1 54149U 22138AN  25248.97556076  .00004225  00000+0  37954-3 0  9998
2 54149  87.3779 228.1895 0025057 101.5254 258.8792 14.95218547156311
XRISM                   
1 57800U 23137A   25249.10708969  .00008224  00000+0  50367-3 0  9997
2 57800  31.0026  35.1612 0008296 346.3275  13.7138 15.08840128109861
ACS3                    
1 59588U 24077B   25249.21075893  .00020869  00000+0  19720-1 0  9996
2 59588  97.4000 226.1575 0051560   0.9284 359.1961 13.80473699 68665
